ONEWEB-0512             
1 54130U 22138T   25115.70943202  .00000085  00000+0  18117-3 0  9993
2 54130  87.9265  27.9721 0001898  65.4263 294.7067 13.19724164121740
ONEWEB-0513             
1 54131U 22138U   25115.81395552  .00000033  00000+0  49643-4 0  9997
2 54131  87.9260  27.9299 0001987  66.4331 293.7011 13.20258825121647
ONEWEB-0514             
1 54132U 22138V   25115.49778306  .00000035  00000+0  55489-4 0  9991
2 54132  87.9257  27.9847 0001971  78.8814 281.2540 13.19725303121736
ONEWEB-0515             
1 54133U 22138W   25116.15349053  .00000119  00000+0  26022-3 0  9992
2 54133  87.9311 357.4466 0001689 116.9438 243.1868 13.20773075125126
ONEWEB-0516             
1 54134U 22138X   25115.47251003  .00000055  00000+0  10402-3 0  9998
2 54134  87.9266  28.0218 0001811  76.3863 283.7471 13.19724834121730
ONEWEB-0517             
1 54135U 22138Y   25116.28596356  .00000043  00000+0  76237-4 0  9998
2 54135  87.9256  27.8238 0002203  76.3171 283.8207 13.19725756122718
ONEWEB-0518             
1 54136U 22138Z   25116.45653879  .00000090  00000+0  19318-3 0  9990
2 54136  87.9263  27.8225 0001833  73.3363 286.7971 13.19724047122735
ONEWEB-0519             
1 54137U 22138AA  25115.72365433  .00000039  00000+0  64606-4 0  9990
2 54137  87.9256  27.9284 0002127  75.5718 284.5650 13.19724760121774
